start=new Date('2021-10-23T00:00:00.000Z').valueOf();
sats=[{"SEMIMAJOR_AXIS":"6925.327","MEAN_MOTION_DDOT":"0.0000000000000","CENTER_NAME":"EARTH","SITE":"AFETR","PERIAPSIS":"546.203","CLASSIFICATION_TYPE":"U","DECAY_DATE":null,"MEAN_MOTION_DOT":"0.00001677","EPOCH":"2021-10-22T17:32:48.875136","APOAPSIS":"548.182","OBJECT_NAME":"STARLINK-2745","RA_OF_ASC_NODE":"89.6114","EPHEMERIS_TYPE":"0","MEAN_MOTION":"15.06406989","FILE":"3179071","BSTAR":"0.00013143000000","OBJECT_ID":"2021-044AK","TIME_SYSTEM":"UTC","MEAN_ELEMENT_THEORY":"SGP4","ELEMENT_SET_NO":"999","ECCENTRICITY":"0.00014290","MEAN_ANOMALY":"268.3293","REF_FRAME":"TEME","COUNTRY_CODE":"US","RCS_SIZE":"LARGE","GP_ID":"187935310","NORAD_CAT_ID":"48671","TLE_LINE1":"1 48671U 21044AK  21295.73112124  .00001677  00000-0  13143-3 0  9993","TLE_LINE2":"2 48671  53.0558  89.6114 0001429  91.7860 268.3293 15.06406989 22847","ARG_OF_PERICENTER":"91.7860","OBJECT_TYPE":"PAYLOAD","LAUNCH_DATE":"2021-05-26","INCLINATION":"53.0558","PERIOD":"95.592","REV_AT_EPOCH":"2284"},{"ECCENTRICITY":"0.00016520","RCS_SIZE":"LARGE","GP_ID":"187935533","NORAD_CAT_ID":"48672","COUNTRY_CODE":"US","REF_FRAME":"TEME","MEAN_ANOMALY":"269.3240","MEAN_ELEMENT_THEORY":"SGP4","ELEMENT_SET_NO":"999","TIME_SYSTEM":"UTC","PERIOD":"95.592","INCLINATION":"53.0558","LAUNCH_DATE":"2021-05-26","OBJECT_TYPE":"PAYLOAD","REV_AT_EPOCH":"2284","TLE_LINE2":"2 48672  53.0558  89.6246 0001652  90.7939 269.3240 15.06398298 22844","TLE_LINE1":"1 48672U 21044AL  21295.72744153 -.00000609  00000-0 -22013-4 0  9999","ARG_OF_PERICENTER":"90.7939","CENTER_NAME":"EARTH","SITE":"AFETR","DECAY_DATE":null,"CLASSIFICATION_TYPE":"U","PERIAPSIS":"546.075","MEAN_MOTION_DDOT":"0.0000000000000","SEMIMAJOR_AXIS":"6925.354","RA_OF_ASC_NODE":"89.6246","OBJECT_ID":"2021-044AL","BSTAR":"-0.00002201300000","FILE":"3179071","MEAN_MOTION":"15.06398298","EPHEMERIS_TYPE":"0","APOAPSIS":"548.363","OBJECT_NAME":"STARLINK-2705","EPOCH":"2021-10-22T17:27:30.948192","MEAN_MOTION_DOT":"-0.00000609"},{"ARG_OF_PERICENTER":"93.6938","TLE_LINE1":"1 48673U 21044AM  21295.72374464  .00001024  00000-0  87634-4 0  9994","TLE_LINE2":"2 48673  53.0551  89.6418 0001413  93.6938 266.4212 15.06397158 22846","REV_AT_EPOCH":"2284","OBJECT_TYPE":"PAYLOAD","LAUNCH_DATE":"2021-05-26","INCLINATION":"53.0551","PERIOD":"95.592","ELEMENT_SET_NO":"999","MEAN_ELEMENT_THEORY":"SGP4","TIME_SYSTEM":"UTC","MEAN_ANOMALY":"266.4212","REF_FRAME":"TEME","COUNTRY_CODE":"US","RCS_SIZE":"LARGE","GP_ID":"187934865","NORAD_CAT_ID":"48673","ECCENTRICITY":"0.00014130","MEAN_MOTION_DOT":"0.00001024","EPOCH":"2021-10-22T17:22:11.536896","APOAPSIS":"548.201","OBJECT_NAME":"STARLINK-2711","EPHEMERIS_TYPE":"0","BSTAR":"0.00008763400000","FILE":"3179071","MEAN_MOTION":"15.06397158","OBJECT_ID":"2021-044AM","RA_OF_ASC_NODE":"89.6418","MEAN_MOTION_DDOT":"0.0000000000000","SEMIMAJOR_AXIS":"6925.357","PERIAPSIS":"546.244","DECAY_DATE":null,"CLASSIFICATION_TYPE":"U","CENTER_NAME":"EARTH","SITE":"AFETR"},{"FILE":"3179071","BSTAR":"0.00014362000000","MEAN_MOTION":"15.06401997","OBJECT_ID":"2021-044AN","EPHEMERIS_TYPE":"0","RA_OF_ASC_NODE":"89.6587","OBJECT_NAME":"STARLINK-2712","APOAPSIS":"548.248","MEAN_MOTION_DOT":"0.00001858","EPOCH":"2021-10-22T17:16:53.041440","PERIAPSIS":"546.167","CLASSIFICATION_TYPE":"U","DECAY_DATE":null,"SITE":"AFETR","CENTER_NAME":"EARTH","SEMIMAJOR_AXIS":"6925.342","MEAN_MOTION_DDOT":"0.0000000000000","REV_AT_EPOCH":"2284","INCLINATION":"53.0553","PERIOD":"95.592","LAUNCH_DATE":"2021-05-26","OBJECT_TYPE":"PAYLOAD","ARG_OF_PERICENTER":"92.6707","TLE_LINE2":"2 48674  53.0553  89.6587 0001503  92.6707 267.4454 15.06401997 22845","TLE_LINE1":"1 48674U 21044AN  21295.72005835  .00001858  00000-0  14362-3 0  9990","COUNTRY_CODE":"US","RCS_SIZE":"LARGE","GP_ID":"187935421","NORAD_CAT_ID":"48674","MEAN_ANOMALY":"267.4454","REF_FRAME":"TEME","ECCENTRICITY":"0.00015030","MEAN_ELEMENT_THEORY":"SGP4","TIME_SYSTEM":"UTC","ELEMENT_SET_NO":"999"},{"CENTER_NAME":"EARTH","SITE":"AFETR","PERIAPSIS":"546.196","DECAY_DATE":null,"CLASSIFICATION_TYPE":"U","MEAN_MOTION_DDOT":"0.0000000000000","SEMIMAJOR_AXIS":"6925.370","RA_OF_ASC_NODE":"89.6764","EPHEMERIS_TYPE":"0","FILE":"3179071","MEAN_MOTION":"15.06393104","BSTAR":"0.00007056200000","OBJECT_ID":"2021-044AP","MEAN_MOTION_DOT":"0.00000769","EPOCH":"2021-10-22T17:11:35.134368","APOAPSIS":"548.273","OBJECT_NAME":"STARLINK-2737","ECCENTRICITY":"0.00015000","MEAN_ANOMALY":"271.1173","REF_FRAME":"TEME","COUNTRY_CODE":"US","GP_ID":"187934976","RCS_SIZE":"LARGE","NORAD_CAT_ID":"48675","TIME_SYSTEM":"UTC","MEAN_ELEMENT_THEORY":"SGP4","ELEMENT_SET_NO":"999","LAUNCH_DATE":"2021-05-26","OBJECT_TYPE":"PAYLOAD","INCLINATION":"53.0564","PERIOD":"95.593","REV_AT_EPOCH":"2284","TLE_LINE1":"1 48675U 21044AP  21295.71637887  .00000769  00000-0  70562-4 0  9993","TLE_LINE2":"2 48675  53.0564  89.6764 0001500  88.9988 271.1173 15.06393104 22841","ARG_OF_PERICENTER":"88.9988"},{"ARG_OF_PERICENTER":"95.6230","TLE_LINE2":"2 48676  53.0557  89.6885 0001580  95.6230 264.4939 15.06404199 22843","TLE_LINE1":"1 48676U 21044AQ  21295.71268065  .00000652  00000-0  62642-4 0  9993","REV_AT_EPOCH":"2284","PERIOD":"95.592","INCLINATION":"53.0557","LAUNCH_DATE":"2021-05-26","OBJECT_TYPE":"PAYLOAD","MEAN_ELEMENT_THEORY":"SGP4","TIME_SYSTEM":"UTC","ELEMENT_SET_NO":"999","NORAD_CAT_ID":"48676","GP_ID":"187935640","RCS_SIZE":"LARGE","COUNTRY_CODE":"US","REF_FRAME":"TEME","MEAN_ANOMALY":"264.4939","ECCENTRICITY":"0.00015800","APOAPSIS":"548.295","OBJECT_NAME":"STARLINK-2746","MEAN_MOTION_DOT":"0.00000652","EPOCH":"2021-10-22T17:06:15.608160","OBJECT_ID":"2021-044AQ","MEAN_MOTION":"15.06404199","FILE":"3179071","BSTAR":"0.00006264200000","EPHEMERIS_TYPE":"0","RA_OF_ASC_NODE":"89.6885","MEAN_MOTION_DDOT":"0.0000000000000","SEMIMAJOR_AXIS":"6925.336","DECAY_DATE":null,"CLASSIFICATION_TYPE":"U","PERIAPSIS":"546.106","CENTER_NAME":"EARTH","SITE":"AFETR"},{"SITE":"AFETR","CENTER_NAME":"EARTH","PERIAPSIS":"546.019","CLASSIFICATION_TYPE":"U","DECAY_DATE":null,"MEAN_MOTION_DDOT":"0.0000000000000","SEMIMAJOR_AXIS":"6925.368","RA_OF_ASC_NODE":"89.7044","FILE":"3179071","MEAN_MOTION":"15.06393511","BSTAR":"0.00007270500000","OBJECT_ID":"2021-044AR","EPHEMERIS_TYPE":"0","OBJECT_NAME":"STARLINK-2719","APOAPSIS":"548.448","MEAN_MOTION_DOT":"0.00000801","EPOCH":"2021-10-22T17:00:58.419072","ECCENTRICITY":"0.00017540","COUNTRY_CODE":"US","GP_ID":"187935200","RCS_SIZE":"LARGE","NORAD_CAT_ID":"48677","MEAN_ANOMALY":"272.7501","REF_FRAME":"TEME","ELEMENT_SET_NO":"999","TIME_SYSTEM":"UTC","MEAN_ELEMENT_THEORY":"SGP4","INCLINATION":"53.0553","PERIOD":"95.593","LAUNCH_DATE":"2021-05-26","OBJECT_TYPE":"PAYLOAD","REV_AT_EPOCH":"2284","TLE_LINE2":"2 48677  53.0553  89.7044 0001754  87.3689 272.7501 15.06393511 22849","TLE_LINE1":"1 48677U 21044AR  21295.70900948  .00000801  00000-0  72705-4 0  9993","ARG_OF_PERICENTER":"87.3689"},{"REF_FRAME":"TEME","MEAN_ANOMALY":"265.8622","GP_ID":"187935087","RCS_SIZE":"LARGE","NORAD_CAT_ID":"48678","COUNTRY_CODE":"US","ECCENTRICITY":"0.00015930","MEAN_ELEMENT_THEORY":"SGP4","ELEMENT_SET_NO":"999","TIME_SYSTEM":"UTC","REV_AT_EPOCH":"2284","LAUNCH_DATE":"2021-05-26","OBJECT_TYPE":"PAYLOAD","PERIOD":"95.592","INCLINATION":"53.0562","ARG_OF_PERICENTER":"94.2549","TLE_LINE1":"1 48678U 21044AS  21295.70531299  .00000570  00000-0  57173-4 0  9998","TLE_LINE2":"2 48678  53.0562  89.7243 0001593  94.2549 265.8622 15.06401947 22844","CLASSIFICATION_TYPE":"U","DECAY_DATE":null,"PERIAPSIS":"546.104","CENTER_NAME":"EARTH","SITE":"AFETR","SEMIMAJOR_AXIS":"6925.343","MEAN_MOTION_DDOT":"0.0000000000000","EPHEMERIS_TYPE":"0","OBJECT_ID":"2021-044AS","FILE":"3179071","BSTAR":"0.00005717300000","MEAN_MOTION":"15.06401947","RA_OF_ASC_NODE":"89.7243","EPOCH":"2021-10-22T16:55:39.042336","MEAN_MOTION_DOT":"0.00000570","OBJECT_NAME":"STARLINK-2615","APOAPSIS":"548.311"},{"MEAN_ELEMENT_THEORY":"SGP4","ELEMENT_SET_NO":"999","TIME_SYSTEM":"UTC","MEAN_ANOMALY":"273.5065","REF_FRAME":"TEME","COUNTRY_CODE":"US","GP_ID":"187935311","RCS_SIZE":"LARGE","NORAD_CAT_ID":"48679","ECCENTRICITY":"0.00015420","ARG_OF_PERICENTER":"86.6100","TLE_LINE1":"1 48679U 21044AT  21295.70163410  .00001749  00000-0  13626-3 0  9998","TLE_LINE2":"2 48679  53.0565  89.7429 0001542  86.6100 273.5065 15.06414680 22841","REV_AT_EPOCH":"2284","OBJECT_TYPE":"PAYLOAD","LAUNCH_DATE":"2021-05-26","INCLINATION":"53.0565","PERIOD":"95.591","MEAN_MOTION_DDOT":"0.0000000000000","SEMIMAJOR_AXIS":"6925.304","PERIAPSIS":"546.101","CLASSIFICATION_TYPE":"U","DECAY_DATE":null,"SITE":"AFETR","CENTER_NAME":"EARTH","MEAN_MOTION_DOT":"0.00001749","EPOCH":"2021-10-22T16:50:21.186240","OBJECT_NAME":"STARLINK-2648","APOAPSIS":"548.236","EPHEMERIS_TYPE":"0","FILE":"3179071","MEAN_MOTION":"15.06414680","BSTAR":"0.00013626000000","OBJECT_ID":"2021-044AT","RA_OF_ASC_NODE":"89.7429"},{"SEMIMAJOR_AXIS":"6925.348","MEAN_MOTION_DDOT":"0.0000000000000","PERIAPSIS":"546.151","DECAY_DATE":null,"CLASSIFICATION_TYPE":"U","SITE":"AFETR","CENTER_NAME":"EARTH","APOAPSIS":"548.275","OBJECT_NAME":"STARLINK-2649","MEAN_MOTION_DOT":"-0.00001147","EPOCH":"2021-10-22T16:45:03.076128","FILE":"3179071","BSTAR":"-0.00005810400000","MEAN_MOTION":"15.06400160","OBJECT_ID":"2021-044AU","EPHEMERIS_TYPE":"0","RA_OF_ASC_NODE":"89.7549","TIME_SYSTEM":"UTC","MEAN_ELEMENT_THEORY":"SGP4","ELEMENT_SET_NO":"999","COUNTRY_CODE":"US","GP_ID":"187935534","RCS_SIZE":"LARGE","NORAD_CAT_ID":"48680","MEAN_ANOMALY":"272.0514","REF_FRAME":"TEME","ECCENTRICITY":"0.00015340","ARG_OF_PERICENTER":"88.0651","TLE_LINE2":"2 48680  53.0557  89.7549 0001534  88.0651 272.0514 15.06400160 22846","TLE_LINE1":"1 48680U 21044AU  21295.69795227 -.00001147  00000-0 -58104-4 0  9990","REV_AT_EPOCH":"2284","INCLINATION":"53.0557","PERIOD":"95.592","OBJECT_TYPE":"PAYLOAD","LAUNCH_DATE":"2021-05-26"}];
